IDEFIX & ARIANE 42P R/B 
1 27422U 02021B   26005.07739572  .00000458  00000+0  19068-3 0  9998
2 27422  98.5811 304.4686 0012270  19.8197 340.3460 14.30971594234922
AQUA                    
1 27424U 02022A   26004.96787591  .00001598  00000+0  32997-3 0  9994
2 27424  98.4069 331.2279 0002002  90.2377   0.6092 14.61798176259425
CZ-4B R/B               
1 27432U 02024C   26005.12819837  .00000104  00000+0  76480-4 0  9991
2 27432  98.8961  58.8143 0049836 202.6150 212.6457 14.14533801220254
MIDORI II (ADEOS-II)    
1 27597U 02056A   26005.16816087  .00000482  00000+0  20744-3 0  9996
2 27597  98.7666 323.2514 0001307 132.7411 227.3880 14.29227425201229
H-2A R/B                
1 27601U 02056E   26004.92189909  .00000606  00000+0  22702-3 0  9995
2 27601  98.3095 327.7598 0070248 352.5998  73.6843 14.33702407204979
CZ-4B R/B               
1 28059U 03049C   26004.97822710  .00000645  00000+0  15938-3 0  9991
2 28059  98.6803 357.4222 0049262  66.6240 294.0127 14.54937522177330
CZ-2C R/B               
1 28222U 04012C   26005.14130983  .00045907  00000+0  61672-3 0  9994
2 28222  97.7374  64.7241 0016778 181.0970 179.0250 15.57618204194360
SL-16 R/B               
1 28353U 04021B   26005.09837257  .00000360  00000+0  21214-3 0  9993
2 28353  71.0017   5.9442 0003831 161.1839 198.9425 14.14588421113840
CZ-4B R/B               
1 28415U 04035C   26005.07788034  .00009232  00000+0  33709-3 0  9992
2 28415  97.3574  40.1133 0032518 191.4976 168.5524 15.27835054170194
CZ-2C R/B               
1 28480U 04046B   26005.16833300  .00000441  00000+0  17951-3 0  9997
2 28480  98.1998 284.0920 0139197 343.1990  16.4605 14.26959788 99449
ARIANE 5 R/B            
1 28499U 04049H   26005.16789610  .00001611  00000+0  18402-3 0  9996
2 28499  98.2532 171.2924 0084071 196.1975 163.6549 14.85092627136364
CZ-2D R/B               
1 28738U 05024B   26005.03327144  .00035198  00000+0  52823-3 0  9994
2 28738  97.3617  18.1144 0003066 243.4901 116.6038 15.54828423129874
